IRIDIUM 7               
1 24793U 97020B   25356.52610724  .00000416  00000+0  13633-3 0  9990
2 24793  86.3959  97.9937 0001931 104.0906 256.0506 14.36113977498923
IRIDIUM 5               
1 24795U 97020D   25356.95333391  .00004491  00000+0  35057-3 0  9992
2 24795  86.3878 356.5347 0104175 178.2654 181.8961 14.96589209513672
IRIDIUM 4               
1 24796U 97020E   25356.80916769  .00000392  00000+0  12549-3 0  9990
2 24796  86.3954  94.6251 0001987  97.7069 262.4354 14.37020223499557
IRIDIUM 914             
1 24836U 97030A   25356.83887780  .00000430  00000+0  12754-3 0  9990
2 24836  86.3937 102.6596 0001380  47.1809 312.9506 14.41078027634295
IRIDIUM 16              
1 24841U 97030F   25356.87434713  .00000488  00000+0  15203-3 0  9999
2 24841  86.4043 126.0575 0003404 131.4252 228.7239 14.38897670494138
IRIDIUM 911             
1 24842U 97030G   25356.87431999  .00000672  00000+0  17561-3 0  9997
2 24842  86.4467 124.6190 0014128 180.1555 179.9646 14.47906756502380
IRIDIUM 17              
1 24870U 97034B   25356.83686253  .00000409  00000+0  12872-3 0  9991
2 24870  86.3976 155.4925 0003577 102.7683 257.3915 14.38032579490694
IRIDIUM 920             
1 24871U 97034C   25356.81171029  .00000472  00000+0  13848-3 0  9994
2 24871  86.3986 134.3043 0011855 169.5639 190.5809 14.41738374493753
